start=new Date('2023-05-16T00:00:00.000Z').valueOf();
sats=[{"ARG_OF_PERICENTER":"96.9104","ECCENTRICITY":"0.00008220","RA_OF_ASC_NODE":"197.1363","INCLINATION":"53.0522","OBJECT_TYPE":"PAYLOAD","PERIAPSIS":"546.601","MEAN_MOTION":"15.06414085","PERIOD":"95.591","CLASSIFICATION_TYPE":"U","FILE":"3908862","BSTAR":"0.00114510000000","COUNTRY_CODE":"US","CENTER_NAME":"EARTH","NORAD_CAT_ID":"47999","MEAN_MOTION_DDOT":"0.0000000000000","TLE_LINE1":"1 47999U 21024Y   23135.43219317  .00016822  00000-0  11451-2 0  9994","REF_FRAME":"TEME","LAUNCH_DATE":"2021-03-24","DECAY_DATE":null,"ELEMENT_SET_NO":"999","MEAN_ELEMENT_THEORY":"SGP4","APOAPSIS":"547.740","EPHEMERIS_TYPE":"0","TLE_LINE2":"2 47999  53.0522 197.1363 0000822  96.9104 263.1979 15.06414085120013","TIME_SYSTEM":"UTC","GP_ID":"231902910","SITE":"AFETR","EPOCH":"2023-05-15T10:22:21.489888","MEAN_ANOMALY":"263.1979","OBJECT_NAME":"STARLINK-2218","OBJECT_ID":"2021-024Y","MEAN_MOTION_DOT":"0.00016822","RCS_SIZE":"LARGE","SEMIMAJOR_AXIS":"6925.305","REV_AT_EPOCH":"12001"},{"MEAN_ELEMENT_THEORY":"SGP4","APOAPSIS":"548.043","ELEMENT_SET_NO":"999","DECAY_DATE":null,"LAUNCH_DATE":"2021-03-24","REF_FRAME":"TEME","TLE_LINE1":"1 48000U 21024Z   23135.82710423  .00001991  00000-0  15255-3 0  9993","MEAN_MOTION_DDOT":"0.0000000000000","CENTER_NAME":"EARTH","NORAD_CAT_ID":"48000","BSTAR":"0.00015255000000","COUNTRY_CODE":"US","FILE":"3908892","PERIOD":"95.592","CLASSIFICATION_TYPE":"U","PERIAPSIS":"546.412","MEAN_MOTION":"15.06395414","OBJECT_TYPE":"PAYLOAD","ARG_OF_PERICENTER":"83.8231","RA_OF_ASC_NODE":"180.5617","ECCENTRICITY":"0.00011780","INCLINATION":"53.0526","REV_AT_EPOCH":"12076","MEAN_MOTION_DOT":"0.00001991","RCS_SIZE":"LARGE","SEMIMAJOR_AXIS":"6925.363","OBJECT_ID":"2021-024Z","OBJECT_NAME":"STARLINK-2270","MEAN_ANOMALY":"276.2892","EPOCH":"2023-05-15T19:51:01.805472","SITE":"AFETR","GP_ID":"231924164","TLE_LINE2":"2 48000  53.0526 180.5617 0001178  83.8231 276.2892 15.06395414120765","TIME_SYSTEM":"UTC","EPHEMERIS_TYPE":"0"},{"CENTER_NAME":"EARTH","NORAD_CAT_ID":"48002","FILE":"3908681","BSTAR":"0.00124080000000","COUNTRY_CODE":"US","PERIAPSIS":"546.419","MEAN_MOTION":"15.06414884","PERIOD":"95.591","CLASSIFICATION_TYPE":"U","ARG_OF_PERICENTER":"91.5526","RA_OF_ASC_NODE":"202.3396","ECCENTRICITY":"0.00010820","INCLINATION":"53.0531","OBJECT_TYPE":"PAYLOAD","ELEMENT_SET_NO":"999","MEAN_ELEMENT_THEORY":"SGP4","APOAPSIS":"547.917","DECAY_DATE":null,"LAUNCH_DATE":"2021-03-24","REF_FRAME":"TEME","TLE_LINE1":"1 48002U 21024AB  23135.45667445  .00018256  00000-0  12408-2 0  9997","MEAN_MOTION_DDOT":"0.0000000000000","TLE_LINE2":"2 48002  53.0531 202.3396 0001082  91.5526 268.5587 15.06414884120417","TIME_SYSTEM":"UTC","GP_ID":"231894103","SITE":"AFETR","EPHEMERIS_TYPE":"0","REV_AT_EPOCH":"12041","OBJECT_ID":"2021-024AB","MEAN_MOTION_DOT":"0.00018256","RCS_SIZE":"LARGE","SEMIMAJOR_AXIS":"6925.303","MEAN_ANOMALY":"268.5587","OBJECT_NAME":"STARLINK-2265","EPOCH":"2023-05-15T10:57:36.672480"},{"SEMIMAJOR_AXIS":"6925.258","RCS_SIZE":"LARGE","MEAN_MOTION_DOT":"0.00024364","OBJECT_ID":"2021-024AC","REV_AT_EPOCH":"11940","EPOCH":"2023-05-15T17:01:48.104256","OBJECT_NAME":"STARLINK-2263","MEAN_ANOMALY":"281.2333","GP_ID":"231925660","SITE":"AFETR","TIME_SYSTEM":"UTC","TLE_LINE2":"2 48003  53.0535 275.8898 0001240  78.8796 281.2333 15.06429613119401","EPHEMERIS_TYPE":"0","LAUNCH_DATE":"2021-03-24","DECAY_DATE":null,"APOAPSIS":"547.982","MEAN_ELEMENT_THEORY":"SGP4","ELEMENT_SET_NO":"999","TLE_LINE1":"1 48003U 21024AC  23135.70958454  .00024364  00000-0  16476-2 0  9995","MEAN_MOTION_DDOT":"0.0000000000000","REF_FRAME":"TEME","COUNTRY_CODE":"US","BSTAR":"0.00164760000000","FILE":"3908892","NORAD_CAT_ID":"48003","CENTER_NAME":"EARTH","OBJECT_TYPE":"PAYLOAD","ECCENTRICITY":"0.00012400","RA_OF_ASC_NODE":"275.8898","INCLINATION":"53.0535","ARG_OF_PERICENTER":"78.8796","CLASSIFICATION_TYPE":"U","PERIOD":"95.590","MEAN_MOTION":"15.06429613","PERIAPSIS":"546.264"},{"REV_AT_EPOCH":"11982","OBJECT_ID":"2021-024AE","SEMIMAJOR_AXIS":"6925.246","RCS_SIZE":"LARGE","MEAN_MOTION_DOT":"0.00022816","MEAN_ANOMALY":"271.3693","OBJECT_NAME":"STARLINK-2254","EPOCH":"2023-05-15T16:28:37.434432","TIME_SYSTEM":"UTC","TLE_LINE2":"2 48005  53.0536 245.9930 0001345  88.7450 271.3693 15.06433398119822","GP_ID":"231924415","SITE":"AFETR","EPHEMERIS_TYPE":"0","ELEMENT_SET_NO":"999","APOAPSIS":"548.043","MEAN_ELEMENT_THEORY":"SGP4","LAUNCH_DATE":"2021-03-24","DECAY_DATE":null,"REF_FRAME":"TEME","MEAN_MOTION_DDOT":"0.0000000000000","TLE_LINE1":"1 48005U 21024AE  23135.68654438  .00022816  00000-0  15443-2 0  9992","NORAD_CAT_ID":"48005","CENTER_NAME":"EARTH","FILE":"3908892","COUNTRY_CODE":"US","BSTAR":"0.00154430000000","MEAN_MOTION":"15.06433398","PERIAPSIS":"546.180","CLASSIFICATION_TYPE":"U","PERIOD":"95.590","ECCENTRICITY":"0.00013450","RA_OF_ASC_NODE":"245.9930","INCLINATION":"53.0536","ARG_OF_PERICENTER":"88.7450","OBJECT_TYPE":"PAYLOAD"},{"OBJECT_ID":"2021-024AH","SEMIMAJOR_AXIS":"6925.363","MEAN_MOTION_DOT":"0.00003321","RCS_SIZE":"LARGE","REV_AT_EPOCH":"12076","EPOCH":"2023-05-15T20:10:52.151232","MEAN_ANOMALY":"270.4666","OBJECT_NAME":"STARLINK-2271","TIME_SYSTEM":"UTC","TLE_LINE2":"2 48008  53.0533 180.2970 0001411  89.6485 270.4666 15.06395421120768","GP_ID":"231924665","SITE":"AFETR","EPHEMERIS_TYPE":"0","LAUNCH_DATE":"2021-03-24","DECAY_DATE":null,"ELEMENT_SET_NO":"999","APOAPSIS":"548.205","MEAN_ELEMENT_THEORY":"SGP4","MEAN_MOTION_DDOT":"0.0000000000000","TLE_LINE1":"1 48008U 21024AH  23135.84088138  .00003321  00000-0  24179-3 0  9998","REF_FRAME":"TEME","FILE":"3908892","COUNTRY_CODE":"US","BSTAR":"0.00024179000000","NORAD_CAT_ID":"48008","CENTER_NAME":"EARTH","ECCENTRICITY":"0.00014110","RA_OF_ASC_NODE":"180.2970","INCLINATION":"53.0533","ARG_OF_PERICENTER":"89.6485","OBJECT_TYPE":"PAYLOAD","MEAN_MOTION":"15.06395421","PERIAPSIS":"546.250","CLASSIFICATION_TYPE":"U","PERIOD":"95.592"},{"CLASSIFICATION_TYPE":"U","PERIOD":"95.591","MEAN_MOTION":"15.06414489","PERIAPSIS":"546.484","OBJECT_TYPE":"PAYLOAD","INCLINATION":"53.0535","RA_OF_ASC_NODE":"255.9272","ECCENTRICITY":"0.00009890","ARG_OF_PERICENTER":"74.7220","NORAD_CAT_ID":"48009","CENTER_NAME":"EARTH","COUNTRY_CODE":"US","BSTAR":"0.00118130000000","FILE":"3908892","REF_FRAME":"TEME","TLE_LINE1":"1 48009U 21024AJ  23135.70036533  .00017365  00000-0  11813-2 0  9999","MEAN_MOTION_DDOT":"0.0000000000000","APOAPSIS":"547.854","MEAN_ELEMENT_THEORY":"SGP4","ELEMENT_SET_NO":"999","DECAY_DATE":null,"LAUNCH_DATE":"2021-03-24","EPHEMERIS_TYPE":"0","GP_ID":"231925416","SITE":"AFETR","TIME_SYSTEM":"UTC","TLE_LINE2":"2 48009  53.0535 255.9272 0000989  74.7220 285.3878 15.06414489119693","OBJECT_NAME":"STARLINK-2153","MEAN_ANOMALY":"285.3878","EPOCH":"2023-05-15T16:48:31.564512","REV_AT_EPOCH":"11969","SEMIMAJOR_AXIS":"6925.304","RCS_SIZE":"LARGE","MEAN_MOTION_DOT":"0.00017365","OBJECT_ID":"2021-024AJ"},{"OBJECT_ID":"2021-024AK","SEMIMAJOR_AXIS":"6925.269","RCS_SIZE":"LARGE","MEAN_MOTION_DOT":"0.00023356","REV_AT_EPOCH":"11940","EPOCH":"2023-05-15T15:31:33.723840","MEAN_ANOMALY":"277.3373","OBJECT_NAME":"STARLINK-2226","TIME_SYSTEM":"UTC","TLE_LINE2":"2 48010  53.0524 276.1685 0001238  82.7756 277.3373 15.06425970119404","GP_ID":"231925160","SITE":"AFETR","EPHEMERIS_TYPE":"0","LAUNCH_DATE":"2021-03-24","DECAY_DATE":null,"ELEMENT_SET_NO":"999","APOAPSIS":"547.991","MEAN_ELEMENT_THEORY":"SGP4","MEAN_MOTION_DDOT":"0.0000000000000","TLE_LINE1":"1 48010U 21024AK  23135.64691810  .00023356  00000-0  15806-2 0  9992","REF_FRAME":"TEME","FILE":"3908892","COUNTRY_CODE":"US","BSTAR":"0.00158060000000","NORAD_CAT_ID":"48010","CENTER_NAME":"EARTH","RA_OF_ASC_NODE":"276.1685","ECCENTRICITY":"0.00012380","INCLINATION":"53.0524","ARG_OF_PERICENTER":"82.7756","OBJECT_TYPE":"PAYLOAD","MEAN_MOTION":"15.06425970","PERIAPSIS":"546.277","CLASSIFICATION_TYPE":"U","PERIOD":"95.590"},{"GP_ID":"231868641","SITE":"AFETR","TLE_LINE2":"2 48011  53.0527 256.3641 0001010  73.6894 286.4206 15.06429830119214","TIME_SYSTEM":"UTC","EPHEMERIS_TYPE":"0","RCS_SIZE":"LARGE","MEAN_MOTION_DOT":"0.00025291","SEMIMAJOR_AXIS":"6925.257","OBJECT_ID":"2021-024AL","REV_AT_EPOCH":"11921","EPOCH":"2023-05-15T14:29:09.806208","OBJECT_NAME":"STARLINK-2272","MEAN_ANOMALY":"286.4206","BSTAR":"0.00170930000000","COUNTRY_CODE":"US","FILE":"3908523","CENTER_NAME":"EARTH","NORAD_CAT_ID":"48011","OBJECT_TYPE":"PAYLOAD","ARG_OF_PERICENTER":"73.6894","RA_OF_ASC_NODE":"256.3641","ECCENTRICITY":"0.00010100","INCLINATION":"53.0527","PERIOD":"95.590","CLASSIFICATION_TYPE":"U","PERIAPSIS":"546.423","MEAN_MOTION":"15.06429830","LAUNCH_DATE":"2021-03-24","DECAY_DATE":null,"MEAN_ELEMENT_THEORY":"SGP4","APOAPSIS":"547.822","ELEMENT_SET_NO":"999","TLE_LINE1":"1 48011U 21024AL  23135.60358572  .00025291  00000-0  17093-2 0  9994","MEAN_MOTION_DDOT":"0.0000000000000","REF_FRAME":"TEME"},{"OBJECT_TYPE":"PAYLOAD","RA_OF_ASC_NODE":"240.9632","INCLINATION":"53.0534","ECCENTRICITY":"0.00010450","ARG_OF_PERICENTER":"89.7387","CLASSIFICATION_TYPE":"U","PERIOD":"95.590","MEAN_MOTION":"15.06439305","PERIAPSIS":"546.369","COUNTRY_CODE":"US","BSTAR":"0.00132680000000","FILE":"3908892","NORAD_CAT_ID":"48013","CENTER_NAME":"EARTH","TLE_LINE1":"1 48013U 21024AN  23135.69253122  .00019557  00000-0  13268-2 0  9998","MEAN_MOTION_DDOT":"0.0000000000000","REF_FRAME":"TEME","DECAY_DATE":null,"LAUNCH_DATE":"2021-03-24","APOAPSIS":"547.817","MEAN_ELEMENT_THEORY":"SGP4","ELEMENT_SET_NO":"999","EPHEMERIS_TYPE":"0","GP_ID":"231924165","SITE":"AFETR","TIME_SYSTEM":"UTC","TLE_LINE2":"2 48013  53.0534 240.9632 0001045  89.7387 270.3722 15.06439305119905","EPOCH":"2023-05-15T16:37:14.697408","OBJECT_NAME":"STARLINK-2243","MEAN_ANOMALY":"270.3722","SEMIMAJOR_AXIS":"6925.228","MEAN_MOTION_DOT":"0.00019557","RCS_SIZE":"LARGE","OBJECT_ID":"2021-024AN","REV_AT_EPOCH":"11990"}];
